[{"OBJECT_NAME":"LIZZIESAT-2 (LS-2)","OBJECT_ID":"2024-247G","EPOCH":"2026-03-09T11:47:37.199328","MEAN_MOTION":15.28222796,"ECCENTRICITY":0.00040927,"INCLINATION":44.9909,"RA_OF_ASC_NODE":117.0823,"ARG_OF_PERICENTER":327.5136,"MEAN_ANOMALY":32.5495,"EPHEMERIS_TYPE":0,"CLASSIFICATION_TYPE":"U","NORAD_CAT_ID":62383,"ELEMENT_SET_NO":999,"REV_AT_EPOCH":6771,"BSTAR":0.00034516624,"MEAN_MOTION_DOT":9.388e-5,"MEAN_MOTION_DDOT":0},{"OBJECT_NAME":"STARLINK-32921","OBJECT_ID":"2025-027P","EPOCH":"2026-03-09T05:32:10.918752","MEAN_MOTION":15.27612444,"ECCENTRICITY":0.00014204,"INCLINATION":42.9985,"RA_OF_ASC_NODE":131.3284,"ARG_OF_PERICENTER":183.4353,"MEAN_ANOMALY":176.6489,"EPHEMERIS_TYPE":0,"CLASSIFICATION_TYPE":"U","NORAD_CAT_ID":62920,"ELEMENT_SET_NO":999,"REV_AT_EPOCH":6147,"BSTAR":0.0010649414,"MEAN_MOTION_DOT":0.00029188,"MEAN_MOTION_DDOT":0}]
